{
"type": "FeatureCollection",
"name": "bairros_cornelio",
"crs": { "type": "name", "properties": { "name": "urn:ogc:def:crs:OGC:1.3:CRS84" } },
"features": [
{ "type": "Feature", "properties": { "name": "Conjunto Habitacional Universitário", "cep": "86300-009", "latitude": -23.163445, "longitude": -50.6663705, "endereco": "Conjunto Habitacional Universitário, Cornélio Procópio, Paraná, Região Sul, 86300-009, Brasil, Região Geográfica Intermediária de Londrina" }, "geometry": { "type": "Point", "coordinates": [ -50.6663705, -23.163445 ] } },
{ "type": "Feature", "properties": { "name": "Jardim Pioneiros", "cep": "86300-009", "latitude": -23.1664376, "longitude": -50.6665715, "endereco": "Jardim Pioneiros, Cornélio Procópio, Paraná, Região Sul, 86300-009, Brasil, Região Geográfica Intermediária de Londrina" }, "geometry": { "type": "Point", "coordinates": [ -50.6665715, -23.1664376 ] } },
{ "type": "Feature", "properties": { "name": "Jardim Panorama", "cep": "86302-106", "latitude": -23.1718236, "longitude": -50.6258183, "endereco": "Jardim Panorama, Cornélio Procópio, Paraná, Região Sul, 86302-106, Brasil" }, "geometry": { "type": "Point", "coordinates": [ -50.6258183, -23.1718236 ] } },
{ "type": "Feature", "properties": { "name": "Residencial Atlântico", "cep": "86302-106", "latitude": -23.1759274, "longitude": -50.6155772, "endereco": "Residencial Atlântico, Cornélio Procópio, Paraná, Região Sul, 86302-106, Brasil" }, "geometry": { "type": "Point", "coordinates": [ -50.6155772, -23.1759274 ] } },
{ "type": "Feature", "properties": { "name": "Conjunto Habitacional João Rocha", "cep": "86302-106", "latitude": -23.167602, "longitude": -50.6293811, "endereco": "Conjunto Habitacional João Rocha, Cornélio Procópio, Paraná, Região Sul, 86302-106, Brasil, Região Geográfica Intermediária de Londrina" }, "geometry": { "type": "Point", "coordinates": [ -50.6293811, -23.167602 ] } },
{ "type": "Feature", "properties": { "name": "Jardim Ivany Paiva Gatti", "cep": "86300-000", "latitude": -23.1695945, "longitude": -50.6194681, "endereco": "Jardim Ivany Paiva Gatti, Cornélio Procópio, Paraná, Região Sul, 86300-000, Brasil, Região Geográfica Intermediária de Londrina" }, "geometry": { "type": "Point", "coordinates": [ -50.6194681, -23.1695945 ] } },
{ "type": "Feature", "properties": { "name": "Residencial Maanain", "cep": "86300-792", "latitude": -23.2075069, "longitude": -50.6298287, "endereco": "Residencial Maanain, Cornélio Procópio, Paraná, Região Sul, 86300-792, Brasil, Região Geográfica Intermediária de Londrina" }, "geometry": { "type": "Point", "coordinates": [ -50.6298287, -23.2075069 ] } },
{ "type": "Feature", "properties": { "name": "Vila Santa Terezinha", "cep": "86300-009", "latitude": -23.1923325, "longitude": -50.6418757, "endereco": "Vila Santa Terezinha, Cornélio Procópio, Paraná, Região Sul, 86300-009, Brasil, Região Geográfica Intermediária de Londrina" }, "geometry": { "type": "Point", "coordinates": [ -50.6418757, -23.1923325 ] } },
{ "type": "Feature", "properties": { "name": "Vila Popular", "cep": "86300-000", "latitude": -23.1888213, "longitude": -50.6397639, "endereco": "Vila Popular, Cornélio Procópio, Paraná, Região Sul, 86300-000, Brasil" }, "geometry": { "type": "Point", "coordinates": [ -50.6397639, -23.1888213 ] } },
{ "type": "Feature", "properties": { "name": "Vila Independência", "cep": "86300-000", "latitude": -23.1789602, "longitude": -50.662963, "endereco": "Vila Independência, Cornélio Procópio, Paraná, Região Sul, 86300-000, Brasil, Região Geográfica Intermediária de Londrina" }, "geometry": { "type": "Point", "coordinates": [ -50.662963, -23.1789602 ] } },
{ "type": "Feature", "properties": { "name": "Jardim Progresso", "cep": "86300-792", "latitude": -23.1994617, "longitude": -50.6562147, "endereco": "Jardim Progresso, Cornélio Procópio, Paraná, Região Sul, 86300-792, Brasil, Região Geográfica Intermediária de Londrina" }, "geometry": { "type": "Point", "coordinates": [ -50.6562147, -23.1994617 ] } },
{ "type": "Feature", "properties": { "name": "Jardim Primavera", "cep": "86300-792", "latitude": -23.1841959, "longitude": -50.6671149, "endereco": "Jardim Primavera, Cornélio Procópio, Paraná, Região Sul, 86300-792, Brasil, Região Geográfica Intermediária de Londrina" }, "geometry": { "type": "Point", "coordinates": [ -50.6671149, -23.1841959 ] } },
{ "type": "Feature", "properties": { "name": "Jardim Vale Verde", "cep": "86300-792", "latitude": -23.1843399, "longitude": -50.6696073, "endereco": "Jardim Vale Verde, Cornélio Procópio, Paraná, Região Sul, 86300-792, Brasil, Região Geográfica Intermediária de Londrina" }, "geometry": { "type": "Point", "coordinates": [ -50.6696073, -23.1843399 ] } },
{ "type": "Feature", "properties": { "name": "Jardim Pérola", "cep": "86302-106", "latitude": -23.1772198, "longitude": -50.6318566, "endereco": "Jardim Pérola, Cornélio Procópio, Paraná, Região Sul, 86302-106, Brasil, Região Geográfica Intermediária de Londrina" }, "geometry": { "type": "Point", "coordinates": [ -50.6318566, -23.1772198 ] } },
{ "type": "Feature", "properties": { "name": "Conjunto Habitacional Vitor Dantas", "cep": "86302-106", "latitude": -23.1721427, "longitude": -50.6350835, "endereco": "Conjunto Habitacional Vitor Dantas, Cornélio Procópio, Paraná, Região Sul, 86302-106, Brasil, Região Geográfica Intermediária de Londrina" }, "geometry": { "type": "Point", "coordinates": [ -50.6350835, -23.1721427 ] } },
{ "type": "Feature", "properties": { "name": "Conjunto Habitacional Fortunato Sibim", "cep": "86300-009", "latitude": -23.1647134, "longitude": -50.6727033, "endereco": "Conjunto Habitacional Fortunato Sibim, Cornélio Procópio, Paraná, Região Sul, 86300-009, Brasil, Região Geográfica Intermediária de Londrina" }, "geometry": { "type": "Point", "coordinates": [ -50.6727033, -23.1647134 ] } },
{ "type": "Feature", "properties": { "name": "Conjunto Habitacional União", "cep": "86300-009", "latitude": -23.1700595, "longitude": -50.6650644, "endereco": "Conjunto Habitacional União, Cornélio Procópio, Paraná, Região Sul, 86300-009, Brasil, Região Geográfica Intermediária de Londrina" }, "geometry": { "type": "Point", "coordinates": [ -50.6650644, -23.1700595 ] } },
{ "type": "Feature", "properties": { "name": "Vila América", "cep": "86300-009", "latitude": -23.1895236, "longitude": -50.65013, "endereco": "Vila América, Cornélio Procópio, Paraná, Região Sul, 86300-009, Brasil, Região Geográfica Intermediária de Londrina" }, "geometry": { "type": "Point", "coordinates": [ -50.65013, -23.1895236 ] } },
{ "type": "Feature", "properties": { "name": "Jardim Morumbi", "cep": "86302-106", "latitude": -23.179339, "longitude": -50.6278278, "endereco": "Jardim Morumbi, Cornélio Procópio, Paraná, Região Sul, 86302-106, Brasil, Região Geográfica Intermediária de Londrina" }, "geometry": { "type": "Point", "coordinates": [ -50.6278278, -23.179339 ] } }
]
}
