{
"type": "FeatureCollection",
"name": "bairros_buffer_eco",
"crs": { "type": "name", "properties": { "name": "urn:ogc:def:crs:EPSG::3857" } },
"features": [
{ "type": "Feature", "properties": { "name": "Conjunto Habitacional Universitário", "cep": "86300-009", "latitude": -23.163445, "longitude": -50.6663705, "endereco": "Conjunto Habitacional Universitário, Cornélio Procópio, Paraná, Região Sul, 86300-009, Brasil, Região Geográfica Intermediária de Londrina", "raio_m": 900, "area_km2": 2.5406042773419384, "peso": 1, "score": 2.5406042773419384, "pop": 626, "densidade": 246.39807371140117 }, "geometry": { "type": "Polygon", "coordinates": [ [ [ -5639254.564403337426484, -2651796.549090299755335 ], [ -5639258.898149332031608, -2651884.764516596216708 ], [ -5639271.85765097476542, -2651972.130380114074796 ], [ -5639293.318101178854704, -2652057.805299828760326 ], [ -5639323.072824077680707, -2652140.964179428294301 ], [ -5639360.835265424102545, -2652220.806153443176299 ], [ -5639406.241752265021205, -2652296.562300017569214 ], [ -5639458.854995311237872, -2652367.503046046942472 ], [ -5639518.168300269171596, -2652432.945193367544562 ], [ -5639583.610447590239346, -2652492.258498326409608 ], [ -5639654.551193620078266, -2652544.871741372160614 ], [ -5639730.30734019447118, -2652590.278228213079274 ], [ -5639810.149314208887517, -2652628.040669559966773 ], [ -5639893.308193808421493, -2652657.795392458792776 ], [ -5639978.983113522641361, -2652679.25584266288206 ], [ -5640066.348977040499449, -2652692.21534430468455 ], [ -5640154.564403337426484, -2652696.549090299755335 ], [ -5640242.779829634353518, -2652692.21534430468455 ], [ -5640330.145693152211607, -2652679.25584266288206 ], [ -5640415.820612866431475, -2652657.795392458792776 ], [ -5640498.97949246596545, -2652628.040669559966773 ], [ -5640578.821466480381787, -2652590.278228213079274 ], [ -5640654.577613054774702, -2652544.871741372160614 ], [ -5640725.518359084613621, -2652492.258498326409608 ], [ -5640790.960506405681372, -2652432.945193367544562 ], [ -5640850.273811363615096, -2652367.503046046942472 ], [ -5640902.887054409831762, -2652296.562300017569214 ], [ -5640948.293541250750422, -2652220.806153443176299 ], [ -5640986.05598259717226, -2652140.964179428294301 ], [ -5641015.810705495998263, -2652057.805299828760326 ], [ -5641037.271155700087547, -2651972.130380114074796 ], [ -5641050.23065734282136, -2651884.764516596216708 ], [ -5641054.564403337426484, -2651796.549090299755335 ], [ -5641050.23065734282136, -2651708.333664003293961 ], [ -5641037.271155700087547, -2651620.967800485435873 ], [ -5641015.810705495998263, -2651535.292880770750344 ], [ -5640986.05598259717226, -2651452.134001171216369 ], [ -5640948.293541250750422, -2651372.29202715633437 ], [ -5640902.887054409831762, -2651296.535880581941456 ], [ -5640850.273811363615096, -2651225.595134552568197 ], [ -5640790.960506405681372, -2651160.152987231966108 ], [ -5640725.518359084613621, -2651100.839682273101062 ], [ -5640654.577613054774702, -2651048.226439227350056 ], [ -5640578.821466480381787, -2651002.819952386431396 ], [ -5640498.97949246596545, -2650965.057511039543897 ], [ -5640415.820612866431475, -2650935.302788140717894 ], [ -5640330.145693152211607, -2650913.84233793662861 ], [ -5640242.779829634353518, -2650900.88283629482612 ], [ -5640154.564403337426484, -2650896.549090299755335 ], [ -5640066.348977040499449, -2650900.88283629482612 ], [ -5639978.983113522641361, -2650913.84233793662861 ], [ -5639893.308193808421493, -2650935.302788140717894 ], [ -5639810.149314208887517, -2650965.057511039543897 ], [ -5639730.30734019447118, -2651002.819952386431396 ], [ -5639654.551193620078266, -2651048.226439227350056 ], [ -5639583.610447590239346, -2651100.839682273101062 ], [ -5639518.168300269171596, -2651160.152987231966108 ], [ -5639458.854995311237872, -2651225.595134552568197 ], [ -5639406.241752265021205, -2651296.535880581941456 ], [ -5639360.835265424102545, -2651372.29202715633437 ], [ -5639323.072824077680707, -2651452.134001171216369 ], [ -5639293.318101178854704, -2651535.292880770750344 ], [ -5639271.85765097476542, -2651620.967800485435873 ], [ -5639258.898149332031608, -2651708.333664003293961 ], [ -5639254.564403337426484, -2651796.549090299755335 ] ] ] } },
{ "type": "Feature", "properties": { "name": "Jardim Pioneiros", "cep": "86300-009", "latitude": -23.1664376, "longitude": -50.6665715, "endereco": "Jardim Pioneiros, Cornélio Procópio, Paraná, Região Sul, 86300-009, Brasil", "raio_m": 1400, "area_km2": 6.1476350414707266, "peso": 3, "score": 18.442905124412178, "pop": 4545, "densidade": 739.30868851848413 }, "geometry": { "type": "Polygon", "coordinates": [ [ [ -5638776.939620987512171, -2652158.897715740371495 ], [ -5638783.681003645993769, -2652296.121712201740593 ], [ -5638803.840228422544897, -2652432.024166563060135 ], [ -5638837.223150962032378, -2652565.296263896394521 ], [ -5638883.508275471627712, -2652694.654521051328629 ], [ -5638942.249850899912417, -2652818.853147296700627 ], [ -5639012.882163763977587, -2652936.696041967719793 ], [ -5639094.724986279383302, -2653047.048313569277525 ], [ -5639186.990127325989306, -2653148.847209401428699 ], [ -5639288.789023158140481, -2653241.112350448034704 ], [ -5639399.141294759698212, -2653322.95517296390608 ], [ -5639516.98418943118304, -2653393.58748582797125 ], [ -5639641.182815676555037, -2653452.329061256255955 ], [ -5639770.541072831489146, -2653498.614185765385628 ], [ -5639903.813170164823532, -2653531.997108304873109 ], [ -5640039.715624526143074, -2653552.156333081424236 ], [ -5640176.939620987512171, -2653558.897715740371495 ], [ -5640314.163617448881269, -2653552.156333081424236 ], [ -5640450.06607181020081, -2653531.997108304873109 ], [ -5640583.338169143535197, -2653498.614185765385628 ], [ -5640712.696426298469305, -2653452.329061256255955 ], [ -5640836.895052543841302, -2653393.58748582797125 ], [ -5640954.73794721532613, -2653322.95517296390608 ], [ -5641065.090218816883862, -2653241.112350448034704 ], [ -5641166.889114649035037, -2653148.847209401428699 ], [ -5641259.154255695641041, -2653047.048313569277525 ], [ -5641340.997078211046755, -2652936.696041967719793 ], [ -5641411.629391075111926, -2652818.853147296700627 ], [ -5641470.37096650339663, -2652694.654521051328629 ], [ -5641516.656091012991965, -2652565.296263896394521 ], [ -5641550.039013552479446, -2652432.024166563060135 ], [ -5641570.198238329030573, -2652296.121712201740593 ], [ -5641576.939620987512171, -2652158.897715740371495 ], [ -5641570.198238329030573, -2652021.673719279002398 ], [ -5641550.039013552479446, -2651885.771264917682856 ], [ -5641516.656091012991965, -2651752.49916758434847 ], [ -5641470.37096650339663, -2651623.140910429414362 ], [ -5641411.629391075111926, -2651498.942284184042364 ], [ -5641340.997078211046755, -2651381.099389513023198 ], [ -5641259.154255695641041, -2651270.747117911465466 ], [ -5641166.889114649035037, -2651168.948222079314291 ], [ -5641065.090218816883862, -2651076.683081032708287 ], [ -5640954.73794721532613, -2650994.840258516836911 ], [ -5640836.895052543841302, -2650924.207945652771741 ], [ -5640712.696426298469305, -2650865.466370224487036 ], [ -5640583.338169143535197, -2650819.181245715357363 ], [ -5640450.06607181020081, -2650785.798323175869882 ], [ -5640314.163617448881269, -2650765.639098399318755 ], [ -5640176.939620987512171, -2650758.897715740371495 ], [ -5640039.715624526143074, -2650765.639098399318755 ], [ -5639903.813170164823532, -2650785.798323175869882 ], [ -5639770.541072831489146, -2650819.181245715357363 ], [ -5639641.182815676555037, -2650865.466370224487036 ], [ -5639516.98418943118304, -2650924.207945652771741 ], [ -5639399.141294759698212, -2650994.840258516836911 ], [ -5639288.789023158140481, -2651076.683081032708287 ], [ -5639186.990127325989306, -2651168.948222079314291 ], [ -5639094.724986279383302, -2651270.747117911465466 ], [ -5639012.882163763977587, -2651381.099389513023198 ], [ -5638942.249850899912417, -2651498.942284184042364 ], [ -5638883.508275471627712, -2651623.140910429414362 ], [ -5638837.223150962032378, -2651752.49916758434847 ], [ -5638803.840228422544897, -2651885.771264917682856 ], [ -5638783.681003645993769, -2652021.673719279002398 ], [ -5638776.939620987512171, -2652158.897715740371495 ] ] ] } },
{ "type": "Feature", "properties": { "name": "Jardim Panorama", "cep": "86302-106", "latitude": -23.1718236, "longitude": -50.6258183, "endereco": "Jardim Panorama, Cornélio Procópio, Paraná, Região Sul, 86302-106, Brasil, Região Geográfica Intermediária de Londrina", "raio_m": 1400, "area_km2": 6.1476350414707266, "peso": 3, "score": 18.442905124412178, "pop": 4545, "densidade": 739.30868851848413 }, "geometry": { "type": "Polygon", "coordinates": [ [ [ -5634240.314148791134357, -2652811.063311106525362 ], [ -5634247.055531449615955, -2652948.287307567894459 ], [ -5634267.214756226167083, -2653084.189761929214001 ], [ -5634300.597678765654564, -2653217.461859262548387 ], [ -5634346.882803275249898, -2653346.820116417482495 ], [ -5634405.624378703534603, -2653471.018742662854493 ], [ -5634476.256691567599773, -2653588.861637333873659 ], [ -5634558.099514083005488, -2653699.213908935431391 ], [ -5634650.364655129611492, -2653801.012804767582566 ], [ -5634752.163550961762667, -2653893.27794581418857 ], [ -5634862.515822563320398, -2653975.120768330059946 ], [ -5634980.358717234805226, -2654045.753081194125116 ], [ -5635104.557343480177224, -2654104.494656622409821 ], [ -5635233.915600635111332, -2654150.779781131539494 ], [ -5635367.187697968445718, -2654184.162703671026975 ], [ -5635503.09015232976526, -2654204.321928447578102 ], [ -5635640.314148791134357, -2654211.063311106525362 ], [ -5635777.538145252503455, -2654204.321928447578102 ], [ -5635913.440599613822997, -2654184.162703671026975 ], [ -5636046.712696947157383, -2654150.779781131539494 ], [ -5636176.070954102091491, -2654104.494656622409821 ], [ -5636300.269580347463489, -2654045.753081194125116 ], [ -5636418.112475018948317, -2653975.120768330059946 ], [ -5636528.464746620506048, -2653893.27794581418857 ], [ -5636630.263642452657223, -2653801.012804767582566 ], [ -5636722.528783499263227, -2653699.213908935431391 ], [ -5636804.371606014668941, -2653588.861637333873659 ], [ -5636875.003918878734112, -2653471.018742662854493 ], [ -5636933.745494307018816, -2653346.820116417482495 ], [ -5636980.030618816614151, -2653217.461859262548387 ], [ -5637013.413541356101632, -2653084.189761929214001 ], [ -5637033.57276613265276, -2652948.287307567894459 ], [ -5637040.314148791134357, -2652811.063311106525362 ], [ -5637033.57276613265276, -2652673.839314645156264 ], [ -5637013.413541356101632, -2652537.936860283836722 ], [ -5636980.030618816614151, -2652404.664762950502336 ], [ -5636933.745494307018816, -2652275.306505795568228 ], [ -5636875.003918878734112, -2652151.10787955019623 ], [ -5636804.371606014668941, -2652033.264984879177064 ], [ -5636722.528783499263227, -2651922.912713277619332 ], [ -5636630.263642452657223, -2651821.113817445468158 ], [ -5636528.464746620506048, -2651728.848676398862153 ], [ -5636418.112475018948317, -2651647.005853882990777 ], [ -5636300.269580347463489, -2651576.373541018925607 ], [ -5636176.070954102091491, -2651517.631965590640903 ], [ -5636046.712696947157383, -2651471.346841081511229 ], [ -5635913.440599613822997, -2651437.963918542023748 ], [ -5635777.538145252503455, -2651417.804693765472621 ], [ -5635640.314148791134357, -2651411.063311106525362 ], [ -5635503.09015232976526, -2651417.804693765472621 ], [ -5635367.187697968445718, -2651437.963918542023748 ], [ -5635233.915600635111332, -2651471.346841081511229 ], [ -5635104.557343480177224, -2651517.631965590640903 ], [ -5634980.358717234805226, -2651576.373541018925607 ], [ -5634862.515822563320398, -2651647.005853882990777 ], [ -5634752.163550961762667, -2651728.848676398862153 ], [ -5634650.364655129611492, -2651821.113817445468158 ], [ -5634558.099514083005488, -2651922.912713277619332 ], [ -5634476.256691567599773, -2652033.264984879177064 ], [ -5634405.624378703534603, -2652151.10787955019623 ], [ -5634346.882803275249898, -2652275.306505795568228 ], [ -5634300.597678765654564, -2652404.664762950502336 ], [ -5634267.214756226167083, -2652537.936860283836722 ], [ -5634247.055531449615955, -2652673.839314645156264 ], [ -5634240.314148791134357, -2652811.063311106525362 ] ] ] } },
{ "type": "Feature", "properties": { "name": "Residencial Atlântico", "cep": "86302-106", "latitude": -23.1759274, "longitude": -50.6155772, "endereco": "Residencial Atlântico, Cornélio Procópio, Paraná, Região Sul, 86302-106, Brasil, Região Geográfica Intermediária de Londrina", "raio_m": 900, "area_km2": 2.5406042773419384, "peso": 1, "score": 2.5406042773419384, "pop": 626, "densidade": 246.39807371140117 }, "geometry": { "type": "Polygon", "coordinates": [ [ [ -5633600.280111627653241, -2653307.990907842759043 ], [ -5633604.613857622258365, -2653396.206334139220417 ], [ -5633617.573359264992177, -2653483.572197657078505 ], [ -5633639.033809469081461, -2653569.247117371764034 ], [ -5633668.788532367907465, -2653652.405996971298009 ], [ -5633706.550973714329302, -2653732.247970986180007 ], [ -5633751.957460555247962, -2653808.004117560572922 ], [ -5633804.570703601464629, -2653878.944863589946181 ], [ -5633863.884008559398353, -2653944.38701091054827 ], [ -5633929.326155880466104, -2654003.700315869413316 ], [ -5634000.266901910305023, -2654056.313558915164322 ], [ -5634076.023048484697938, -2654101.720045756082982 ], [ -5634155.865022499114275, -2654139.482487102970481 ], [ -5634239.02390209864825, -2654169.237210001796484 ], [ -5634324.698821812868118, -2654190.697660205885768 ], [ -5634412.064685330726206, -2654203.657161847688258 ], [ -5634500.280111627653241, -2654207.990907842759043 ], [ -5634588.495537924580276, -2654203.657161847688258 ], [ -5634675.861401442438364, -2654190.697660205885768 ], [ -5634761.536321156658232, -2654169.237210001796484 ], [ -5634844.695200756192207, -2654139.482487102970481 ], [ -5634924.537174770608544, -2654101.720045756082982 ], [ -5635000.293321345001459, -2654056.313558915164322 ], [ -5635071.234067374840379, -2654003.700315869413316 ], [ -5635136.676214695908129, -2653944.38701091054827 ], [ -5635195.989519653841853, -2653878.944863589946181 ], [ -5635248.60276270005852, -2653808.004117560572922 ], [ -5635294.00924954097718, -2653732.247970986180007 ], [ -5635331.771690887399018, -2653652.405996971298009 ], [ -5635361.526413786225021, -2653569.247117371764034 ], [ -5635382.986863990314305, -2653483.572197657078505 ], [ -5635395.946365633048117, -2653396.206334139220417 ], [ -5635400.280111627653241, -2653307.990907842759043 ], [ -5635395.946365633048117, -2653219.775481546297669 ], [ -5635382.986863990314305, -2653132.409618028439581 ], [ -5635361.526413786225021, -2653046.734698313754052 ], [ -5635331.771690887399018, -2652963.575818714220077 ], [ -5635294.00924954097718, -2652883.733844699338078 ], [ -5635248.60276270005852, -2652807.977698124945164 ], [ -5635195.989519653841853, -2652737.036952095571905 ], [ -5635136.676214695908129, -2652671.594804774969816 ], [ -5635071.234067374840379, -2652612.28149981610477 ], [ -5635000.293321345001459, -2652559.668256770353764 ], [ -5634924.537174770608544, -2652514.261769929435104 ], [ -5634844.695200756192207, -2652476.499328582547605 ], [ -5634761.536321156658232, -2652446.744605683721602 ], [ -5634675.861401442438364, -2652425.284155479632318 ], [ -5634588.495537924580276, -2652412.324653837829828 ], [ -5634500.280111627653241, -2652407.990907842759043 ], [ -5634412.064685330726206, -2652412.324653837829828 ], [ -5634324.698821812868118, -2652425.284155479632318 ], [ -5634239.02390209864825, -2652446.744605683721602 ], [ -5634155.865022499114275, -2652476.499328582547605 ], [ -5634076.023048484697938, -2652514.261769929435104 ], [ -5634000.266901910305023, -2652559.668256770353764 ], [ -5633929.326155880466104, -2652612.28149981610477 ], [ -5633863.884008559398353, -2652671.594804774969816 ], [ -5633804.570703601464629, -2652737.036952095571905 ], [ -5633751.957460555247962, -2652807.977698124945164 ], [ -5633706.550973714329302, -2652883.733844699338078 ], [ -5633668.788532367907465, -2652963.575818714220077 ], [ -5633639.033809469081461, -2653046.734698313754052 ], [ -5633617.573359264992177, -2653132.409618028439581 ], [ -5633604.613857622258365, -2653219.775481546297669 ], [ -5633600.280111627653241, -2653307.990907842759043 ] ] ] } },
{ "type": "Feature", "properties": { "name": "Conjunto Habitacional João Rocha", "cep": "86302-106", "latitude": -23.167602, "longitude": -50.6293811, "endereco": "Conjunto Habitacional João Rocha, Cornélio Procópio, Paraná, Região Sul, 86302-106, Brasil, Região Geográfica Intermediária de Londrina", "raio_m": 900, "area_km2": 2.5406042773419384, "peso": 1, "score": 2.5406042773419384, "pop": 626, "densidade": 246.39807371140117 }, "geometry": { "type": "Polygon", "coordinates": [ [ [ -5635136.923230589367449, -2652299.88725285930559 ], [ -5635141.256976583972573, -2652388.102679155766964 ], [ -5635154.216478226706386, -2652475.468542673625052 ], [ -5635175.67692843079567, -2652561.143462388310581 ], [ -5635205.431651329621673, -2652644.302341987844557 ], [ -5635243.19409267604351, -2652724.144316002726555 ], [ -5635288.600579516962171, -2652799.90046257711947 ], [ -5635341.213822563178837, -2652870.841208606492728 ], [ -5635400.527127521112561, -2652936.283355927094817 ], [ -5635465.969274842180312, -2652995.596660885959864 ], [ -5635536.910020872019231, -2653048.209903931710869 ], [ -5635612.666167446412146, -2653093.616390772629529 ], [ -5635692.508141460828483, -2653131.378832119517028 ], [ -5635775.667021060362458, -2653161.133555018343031 ], [ -5635861.341940774582326, -2653182.594005222432315 ], [ -5635948.707804292440414, -2653195.553506864234805 ], [ -5636036.923230589367449, -2653199.88725285930559 ], [ -5636125.138656886294484, -2653195.553506864234805 ], [ -5636212.504520404152572, -2653182.594005222432315 ], [ -5636298.17944011837244, -2653161.133555018343031 ], [ -5636381.338319717906415, -2653131.378832119517028 ], [ -5636461.180293732322752, -2653093.616390772629529 ], [ -5636536.936440306715667, -2653048.209903931710869 ], [ -5636607.877186336554587, -2652995.596660885959864 ], [ -5636673.319333657622337, -2652936.283355927094817 ], [ -5636732.632638615556061, -2652870.841208606492728 ], [ -5636785.245881661772728, -2652799.90046257711947 ], [ -5636830.652368502691388, -2652724.144316002726555 ], [ -5636868.414809849113226, -2652644.302341987844557 ], [ -5636898.169532747939229, -2652561.143462388310581 ], [ -5636919.629982952028513, -2652475.468542673625052 ], [ -5636932.589484594762325, -2652388.102679155766964 ], [ -5636936.923230589367449, -2652299.88725285930559 ], [ -5636932.589484594762325, -2652211.671826562844217 ], [ -5636919.629982952028513, -2652124.305963044986129 ], [ -5636898.169532747939229, -2652038.631043330300599 ], [ -5636868.414809849113226, -2651955.472163730766624 ], [ -5636830.652368502691388, -2651875.630189715884626 ], [ -5636785.245881661772728, -2651799.874043141491711 ], [ -5636732.632638615556061, -2651728.933297112118453 ], [ -5636673.319333657622337, -2651663.491149791516364 ], [ -5636607.877186336554587, -2651604.177844832651317 ], [ -5636536.936440306715667, -2651551.564601786900312 ], [ -5636461.180293732322752, -2651506.158114945981652 ], [ -5636381.338319717906415, -2651468.395673599094152 ], [ -5636298.17944011837244, -2651438.640950700268149 ], [ -5636212.504520404152572, -2651417.180500496178865 ], [ -5636125.138656886294484, -2651404.220998854376376 ], [ -5636036.923230589367449, -2651399.88725285930559 ], [ -5635948.707804292440414, -2651404.220998854376376 ], [ -5635861.341940774582326, -2651417.180500496178865 ], [ -5635775.667021060362458, -2651438.640950700268149 ], [ -5635692.508141460828483, -2651468.395673599094152 ], [ -5635612.666167446412146, -2651506.158114945981652 ], [ -5635536.910020872019231, -2651551.564601786900312 ], [ -5635465.969274842180312, -2651604.177844832651317 ], [ -5635400.527127521112561, -2651663.491149791516364 ], [ -5635341.213822563178837, -2651728.933297112118453 ], [ -5635288.600579516962171, -2651799.874043141491711 ], [ -5635243.19409267604351, -2651875.630189715884626 ], [ -5635205.431651329621673, -2651955.472163730766624 ], [ -5635175.67692843079567, -2652038.631043330300599 ], [ -5635154.216478226706386, -2652124.305963044986129 ], [ -5635141.256976583972573, -2652211.671826562844217 ], [ -5635136.923230589367449, -2652299.88725285930559 ] ] ] } },
{ "type": "Feature", "properties": { "name": "Jardim Ivany Paiva Gatti", "cep": "86300-000", "latitude": -23.1695945, "longitude": -50.6194681, "endereco": "Jardim Ivany Paiva Gatti, Cornélio Procópio, Paraná, Região Sul, 86300-000, Brasil", "raio_m": 1400, "area_km2": 6.1476350414707266, "peso": 3, "score": 18.442905124412178, "pop": 4545, "densidade": 739.30868851848413 }, "geometry": { "type": "Polygon", "coordinates": [ [ [ -5633533.413118354976177, -2652541.148816412314773 ], [ -5633540.154501013457775, -2652678.37281287368387 ], [ -5633560.313725790008903, -2652814.275267235003412 ], [ -5633593.696648329496384, -2652947.547364568337798 ], [ -5633639.981772839091718, -2653076.905621723271906 ], [ -5633698.723348267376423, -2653201.104247968643904 ], [ -5633769.355661131441593, -2653318.94714263966307 ], [ -5633851.198483646847308, -2653429.299414241220802 ], [ -5633943.463624693453312, -2653531.098310073371977 ], [ -5634045.262520525604486, -2653623.363451119977981 ], [ -5634155.614792127162218, -2653705.206273635849357 ], [ -5634273.457686798647046, -2653775.838586499914527 ], [ -5634397.656313044019043, -2653834.580161928199232 ], [ -5634527.014570198953152, -2653880.865286437328905 ], [ -5634660.286667532287538, -2653914.248208976816386 ], [ -5634796.18912189360708, -2653934.407433753367513 ], [ -5634933.413118354976177, -2653941.148816412314773 ], [ -5635070.637114816345274, -2653934.407433753367513 ], [ -5635206.539569177664816, -2653914.248208976816386 ], [ -5635339.811666510999203, -2653880.865286437328905 ], [ -5635469.169923665933311, -2653834.580161928199232 ], [ -5635593.368549911305308, -2653775.838586499914527 ], [ -5635711.211444582790136, -2653705.206273635849357 ], [ -5635821.563716184347868, -2653623.363451119977981 ], [ -5635923.362612016499043, -2653531.098310073371977 ], [ -5636015.627753063105047, -2653429.299414241220802 ], [ -5636097.470575578510761, -2653318.94714263966307 ], [ -5636168.102888442575932, -2653201.104247968643904 ], [ -5636226.844463870860636, -2653076.905621723271906 ], [ -5636273.129588380455971, -2652947.547364568337798 ], [ -5636306.512510919943452, -2652814.275267235003412 ], [ -5636326.671735696494579, -2652678.37281287368387 ], [ -5636333.413118354976177, -2652541.148816412314773 ], [ -5636326.671735696494579, -2652403.924819950945675 ], [ -5636306.512510919943452, -2652268.022365589626133 ], [ -5636273.129588380455971, -2652134.750268256291747 ], [ -5636226.844463870860636, -2652005.392011101357639 ], [ -5636168.102888442575932, -2651881.193384855985641 ], [ -5636097.470575578510761, -2651763.350490184966475 ], [ -5636015.627753063105047, -2651652.998218583408743 ], [ -5635923.362612016499043, -2651551.199322751257569 ], [ -5635821.563716184347868, -2651458.934181704651564 ], [ -5635711.211444582790136, -2651377.091359188780189 ], [ -5635593.368549911305308, -2651306.459046324715018 ], [ -5635469.169923665933311, -2651247.717470896430314 ], [ -5635339.811666510999203, -2651201.43234638730064 ], [ -5635206.539569177664816, -2651168.049423847813159 ], [ -5635070.637114816345274, -2651147.890199071262032 ], [ -5634933.413118354976177, -2651141.148816412314773 ], [ -5634796.18912189360708, -2651147.890199071262032 ], [ -5634660.286667532287538, -2651168.049423847813159 ], [ -5634527.014570198953152, -2651201.43234638730064 ], [ -5634397.656313044019043, -2651247.717470896430314 ], [ -5634273.457686798647046, -2651306.459046324715018 ], [ -5634155.614792127162218, -2651377.091359188780189 ], [ -5634045.262520525604486, -2651458.934181704651564 ], [ -5633943.463624693453312, -2651551.199322751257569 ], [ -5633851.198483646847308, -2651652.998218583408743 ], [ -5633769.355661131441593, -2651763.350490184966475 ], [ -5633698.723348267376423, -2651881.193384855985641 ], [ -5633639.981772839091718, -2652005.392011101357639 ], [ -5633593.696648329496384, -2652134.750268256291747 ], [ -5633560.313725790008903, -2652268.022365589626133 ], [ -5633540.154501013457775, -2652403.924819950945675 ], [ -5633533.413118354976177, -2652541.148816412314773 ] ] ] } },
{ "type": "Feature", "properties": { "name": "Residencial Maanain", "cep": "86300-792", "latitude": -23.2075069, "longitude": -50.6298287, "endereco": "Residencial Maanain, Cornélio Procópio, Paraná, Região Sul, 86300-792, Brasil, Região Geográfica Intermediária de Londrina", "raio_m": 900, "area_km2": 2.5406042773419384, "peso": 1, "score": 2.5406042773419384, "pop": 626, "densidade": 246.39807371140117 }, "geometry": { "type": "Polygon", "coordinates": [ [ [ -5635186.749834667891264, -2657132.450708428863436 ], [ -5635191.083580662496388, -2657220.66613472532481 ], [ -5635204.0430823052302, -2657308.031998243182898 ], [ -5635225.503532509319484, -2657393.706917957868427 ], [ -5635255.258255408145487, -2657476.865797557402402 ], [ -5635293.020696754567325, -2657556.7077715722844 ], [ -5635338.427183595485985, -2657632.463918146677315 ], [ -5635391.040426641702652, -2657703.404664176050574 ], [ -5635450.353731599636376, -2657768.846811496652663 ], [ -5635515.795878920704126, -2657828.160116455517709 ], [ -5635586.736624950543046, -2657880.773359501268715 ], [ -5635662.492771524935961, -2657926.179846342187375 ], [ -5635742.334745539352298, -2657963.942287689074874 ], [ -5635825.493625138886273, -2657993.697010587900877 ], [ -5635911.168544853106141, -2658015.157460791990161 ], [ -5635998.534408370964229, -2658028.116962433792651 ], [ -5636086.749834667891264, -2658032.450708428863436 ], [ -5636174.965260964818299, -2658028.116962433792651 ], [ -5636262.331124482676387, -2658015.157460791990161 ], [ -5636348.006044196896255, -2657993.697010587900877 ], [ -5636431.16492379643023, -2657963.942287689074874 ], [ -5636511.006897810846567, -2657926.179846342187375 ], [ -5636586.763044385239482, -2657880.773359501268715 ], [ -5636657.703790415078402, -2657828.160116455517709 ], [ -5636723.145937736146152, -2657768.846811496652663 ], [ -5636782.459242694079876, -2657703.404664176050574 ], [ -5636835.072485740296543, -2657632.463918146677315 ], [ -5636880.478972581215203, -2657556.7077715722844 ], [ -5636918.241413927637041, -2657476.865797557402402 ], [ -5636947.996136826463044, -2657393.706917957868427 ], [ -5636969.456587030552328, -2657308.031998243182898 ], [ -5636982.41608867328614, -2657220.66613472532481 ], [ -5636986.749834667891264, -2657132.450708428863436 ], [ -5636982.41608867328614, -2657044.235282132402062 ], [ -5636969.456587030552328, -2656956.869418614543974 ], [ -5636947.996136826463044, -2656871.194498899858445 ], [ -5636918.241413927637041, -2656788.03561930032447 ], [ -5636880.478972581215203, -2656708.193645285442472 ], [ -5636835.072485740296543, -2656632.437498711049557 ], [ -5636782.459242694079876, -2656561.496752681676298 ], [ -5636723.145937736146152, -2656496.054605361074209 ], [ -5636657.703790415078402, -2656436.741300402209163 ], [ -5636586.763044385239482, -2656384.128057356458157 ], [ -5636511.006897810846567, -2656338.721570515539497 ], [ -5636431.16492379643023, -2656300.959129168651998 ], [ -5636348.006044196896255, -2656271.204406269825995 ], [ -5636262.331124482676387, -2656249.743956065736711 ], [ -5636174.965260964818299, -2656236.784454423934221 ], [ -5636086.749834667891264, -2656232.450708428863436 ], [ -5635998.534408370964229, -2656236.784454423934221 ], [ -5635911.168544853106141, -2656249.743956065736711 ], [ -5635825.493625138886273, -2656271.204406269825995 ], [ -5635742.334745539352298, -2656300.959129168651998 ], [ -5635662.492771524935961, -2656338.721570515539497 ], [ -5635586.736624950543046, -2656384.128057356458157 ], [ -5635515.795878920704126, -2656436.741300402209163 ], [ -5635450.353731599636376, -2656496.054605361074209 ], [ -5635391.040426641702652, -2656561.496752681676298 ], [ -5635338.427183595485985, -2656632.437498711049557 ], [ -5635293.020696754567325, -2656708.193645285442472 ], [ -5635255.258255408145487, -2656788.03561930032447 ], [ -5635225.503532509319484, -2656871.194498899858445 ], [ -5635204.0430823052302, -2656956.869418614543974 ], [ -5635191.083580662496388, -2657044.235282132402062 ], [ -5635186.749834667891264, -2657132.450708428863436 ] ] ] } },
{ "type": "Feature", "properties": { "name": "Vila Santa Terezinha", "cep": "86300-000", "latitude": -23.1923325, "longitude": -50.6418757, "endereco": "Vila Santa Terezinha, Cornélio Procópio, Paraná, Região Sul, 86300-000, Brasil", "raio_m": 1000, "area_km2": 3.1365484905462346, "peso": 2, "score": 6.2730969810924693, "pop": 1546, "densidade": 492.89848528079403 }, "geometry": { "type": "Polygon", "coordinates": [ [ [ -5636427.815740254707634, -2655294.630530024878681 ], [ -5636432.631013582460582, -2655392.647670354228467 ], [ -5636447.030459851026535, -2655489.720852041151375 ], [ -5636470.875404522754252, -2655584.915207279380411 ], [ -5636503.936207743361592, -2655677.313962390180677 ], [ -5636545.894475906156003, -2655766.027266850695014 ], [ -5636596.346127952449024, -2655850.200763044413179 ], [ -5636654.805286891758442, -2655929.023814188316464 ], [ -5636720.70895906817168, -2656001.737311211414635 ], [ -5636793.422456091269851, -2656067.640983387827873 ], [ -5636872.245507234707475, -2656126.100142327602953 ], [ -5636956.419003428891301, -2656176.551794373430312 ], [ -5637045.132307889871299, -2656218.510062536224723 ], [ -5637137.531063000671566, -2656251.570865757297724 ], [ -5637232.725418238900602, -2656275.415810428094119 ], [ -5637329.798599924892187, -2656289.815256697125733 ], [ -5637427.815740254707634, -2656294.630530024878681 ], [ -5637525.832880584523082, -2656289.815256697125733 ], [ -5637622.906062270514667, -2656275.415810428094119 ], [ -5637718.100417508743703, -2656251.570865757297724 ], [ -5637810.49917261954397, -2656218.510062536224723 ], [ -5637899.212477080523968, -2656176.551794373430312 ], [ -5637983.385973274707794, -2656126.100142327602953 ], [ -5638062.209024418145418, -2656067.640983387827873 ], [ -5638134.922521441243589, -2656001.737311211414635 ], [ -5638200.826193617656827, -2655929.023814188316464 ], [ -5638259.285352556966245, -2655850.200763044413179 ], [ -5638309.737004603259265, -2655766.027266850695014 ], [ -5638351.695272766053677, -2655677.313962390180677 ], [ -5638384.756075986661017, -2655584.915207279380411 ], [ -5638408.601020658388734, -2655489.720852041151375 ], [ -5638423.000466926954687, -2655392.647670354228467 ], [ -5638427.815740254707634, -2655294.630530024878681 ], [ -5638423.000466926954687, -2655196.613389695528895 ], [ -5638408.601020658388734, -2655099.540208008605987 ], [ -5638384.756075986661017, -2655004.345852770376951 ], [ -5638351.695272766053677, -2654911.947097659576684 ], [ -5638309.737004603259265, -2654823.233793199062347 ], [ -5638259.285352556966245, -2654739.060297005344182 ], [ -5638200.826193617656827, -2654660.237245861440897 ], [ -5638134.922521441243589, -2654587.523748838342726 ], [ -5638062.209024418145418, -2654521.620076661929488 ], [ -5637983.385973274707794, -2654463.160917722154409 ], [ -5637899.212477080523968, -2654412.70926567632705 ], [ -5637810.49917261954397, -2654370.750997513532639 ], [ -5637718.100417508743703, -2654337.690194292459637 ], [ -5637622.906062270514667, -2654313.845249621663243 ], [ -5637525.832880584523082, -2654299.445803352631629 ], [ -5637427.815740254707634, -2654294.630530024878681 ], [ -5637329.798599924892187, -2654299.445803352631629 ], [ -5637232.725418238900602, -2654313.845249621663243 ], [ -5637137.531063000671566, -2654337.690194292459637 ], [ -5637045.132307889871299, -2654370.750997513532639 ], [ -5636956.419003428891301, -2654412.70926567632705 ], [ -5636872.245507234707475, -2654463.160917722154409 ], [ -5636793.422456091269851, -2654521.620076661929488 ], [ -5636720.70895906817168, -2654587.523748838342726 ], [ -5636654.805286891758442, -2654660.237245861440897 ], [ -5636596.346127952449024, -2654739.060297005344182 ], [ -5636545.894475906156003, -2654823.233793199062347 ], [ -5636503.936207743361592, -2654911.947097659576684 ], [ -5636470.875404522754252, -2655004.345852770376951 ], [ -5636447.030459851026535, -2655099.540208008605987 ], [ -5636432.631013582460582, -2655196.613389695528895 ], [ -5636427.815740254707634, -2655294.630530024878681 ] ] ] } },
{ "type": "Feature", "properties": { "name": "Vila Popular", "cep": "86300-009", "latitude": -23.1888213, "longitude": -50.6397639, "endereco": "Vila Popular, Cornélio Procópio, Paraná, Região Sul, 86300-009, Brasil, Região Geográfica Intermediária de Londrina", "raio_m": 1000, "area_km2": 3.1365484905462346, "peso": 2, "score": 6.2730969810924693, "pop": 1546, "densidade": 492.89848528079403 }, "geometry": { "type": "Polygon", "coordinates": [ [ [ -5636192.731239597313106, -2654869.407567912712693 ], [ -5636197.546512925066054, -2654967.424708242062479 ], [ -5636211.945959193632007, -2655064.497889928985387 ], [ -5636235.790903865359724, -2655159.692245167214423 ], [ -5636268.851707085967064, -2655252.09100027801469 ], [ -5636310.809975248761475, -2655340.804304738529027 ], [ -5636361.261627295054495, -2655424.977800932247192 ], [ -5636419.720786234363914, -2655503.800852076150477 ], [ -5636485.624458410777152, -2655576.514349099248648 ], [ -5636558.337955433875322, -2655642.418021275661886 ], [ -5636637.161006577312946, -2655700.877180215436965 ], [ -5636721.334502771496773, -2655751.328832261264324 ], [ -5636810.047807232476771, -2655793.287100424058735 ], [ -5636902.446562343277037, -2655826.347903645131737 ], [ -5636997.640917581506073, -2655850.192848315928131 ], [ -5637094.714099267497659, -2655864.592294584959745 ], [ -5637192.731239597313106, -2655869.407567912712693 ], [ -5637290.748379927128553, -2655864.592294584959745 ], [ -5637387.821561613120139, -2655850.192848315928131 ], [ -5637483.015916851349175, -2655826.347903645131737 ], [ -5637575.414671962149441, -2655793.287100424058735 ], [ -5637664.127976423129439, -2655751.328832261264324 ], [ -5637748.301472617313266, -2655700.877180215436965 ], [ -5637827.12452376075089, -2655642.418021275661886 ], [ -5637899.838020783849061, -2655576.514349099248648 ], [ -5637965.741692960262299, -2655503.800852076150477 ], [ -5638024.200851899571717, -2655424.977800932247192 ], [ -5638074.652503945864737, -2655340.804304738529027 ], [ -5638116.610772108659148, -2655252.09100027801469 ], [ -5638149.671575329266489, -2655159.692245167214423 ], [ -5638173.516520000994205, -2655064.497889928985387 ], [ -5638187.915966269560158, -2654967.424708242062479 ], [ -5638192.731239597313106, -2654869.407567912712693 ], [ -5638187.915966269560158, -2654771.390427583362907 ], [ -5638173.516520000994205, -2654674.317245896439999 ], [ -5638149.671575329266489, -2654579.122890658210963 ], [ -5638116.610772108659148, -2654486.724135547410697 ], [ -5638074.652503945864737, -2654398.01083108689636 ], [ -5638024.200851899571717, -2654313.837334893178195 ], [ -5637965.741692960262299, -2654235.014283749274909 ], [ -5637899.838020783849061, -2654162.300786726176739 ], [ -5637827.12452376075089, -2654096.397114549763501 ], [ -5637748.301472617313266, -2654037.937955609988421 ], [ -5637664.127976423129439, -2653987.486303564161062 ], [ -5637575.414671962149441, -2653945.528035401366651 ], [ -5637483.015916851349175, -2653912.467232180293649 ], [ -5637387.821561613120139, -2653888.622287509497255 ], [ -5637290.748379927128553, -2653874.222841240465641 ], [ -5637192.731239597313106, -2653869.407567912712693 ], [ -5637094.714099267497659, -2653874.222841240465641 ], [ -5636997.640917581506073, -2653888.622287509497255 ], [ -5636902.446562343277037, -2653912.467232180293649 ], [ -5636810.047807232476771, -2653945.528035401366651 ], [ -5636721.334502771496773, -2653987.486303564161062 ], [ -5636637.161006577312946, -2654037.937955609988421 ], [ -5636558.337955433875322, -2654096.397114549763501 ], [ -5636485.624458410777152, -2654162.300786726176739 ], [ -5636419.720786234363914, -2654235.014283749274909 ], [ -5636361.261627295054495, -2654313.837334893178195 ], [ -5636310.809975248761475, -2654398.01083108689636 ], [ -5636268.851707085967064, -2654486.724135547410697 ], [ -5636235.790903865359724, -2654579.122890658210963 ], [ -5636211.945959193632007, -2654674.317245896439999 ], [ -5636197.546512925066054, -2654771.390427583362907 ], [ -5636192.731239597313106, -2654869.407567912712693 ] ] ] } },
{ "type": "Feature", "properties": { "name": "Vila Independência", "cep": "86300-000", "latitude": -23.1789602, "longitude": -50.662963, "endereco": "Vila Independência, Cornélio Procópio, Paraná, Região Sul, 86300-000, Brasil, Região Geográfica Intermediária de Londrina", "raio_m": 1000, "area_km2": 3.1365484905462346, "peso": 2, "score": 6.2730969810924693, "pop": 1546, "densidade": 492.89848528079403 }, "geometry": { "type": "Polygon", "coordinates": [ [ [ -5638775.243238459341228, -2653675.241309060715139 ], [ -5638780.058511787094176, -2653773.258449390064925 ], [ -5638794.457958055660129, -2653870.331631076987833 ], [ -5638818.302902727387846, -2653965.525986315216869 ], [ -5638851.363705947995186, -2654057.924741426017135 ], [ -5638893.321974110789597, -2654146.638045886531472 ], [ -5638943.773626157082617, -2654230.811542080249637 ], [ -5639002.232785096392035, -2654309.634593224152923 ], [ -5639068.136457272805274, -2654382.348090247251093 ], [ -5639140.849954295903444, -2654448.251762423664331 ], [ -5639219.673005439341068, -2654506.710921363439411 ], [ -5639303.846501633524895, -2654557.16257340926677 ], [ -5639392.559806094504893, -2654599.120841572061181 ], [ -5639484.958561205305159, -2654632.181644793134183 ], [ -5639580.152916443534195, -2654656.026589463930577 ], [ -5639677.226098129525781, -2654670.426035732962191 ], [ -5639775.243238459341228, -2654675.241309060715139 ], [ -5639873.260378789156675, -2654670.426035732962191 ], [ -5639970.333560475148261, -2654656.026589463930577 ], [ -5640065.527915713377297, -2654632.181644793134183 ], [ -5640157.926670824177563, -2654599.120841572061181 ], [ -5640246.639975285157561, -2654557.16257340926677 ], [ -5640330.813471479341388, -2654506.710921363439411 ], [ -5640409.636522622779012, -2654448.251762423664331 ], [ -5640482.350019645877182, -2654382.348090247251093 ], [ -5640548.253691822290421, -2654309.634593224152923 ], [ -5640606.712850761599839, -2654230.811542080249637 ], [ -5640657.164502807892859, -2654146.638045886531472 ], [ -5640699.12277097068727, -2654057.924741426017135 ], [ -5640732.183574191294611, -2653965.525986315216869 ], [ -5640756.028518863022327, -2653870.331631076987833 ], [ -5640770.42796513158828, -2653773.258449390064925 ], [ -5640775.243238459341228, -2653675.241309060715139 ], [ -5640770.42796513158828, -2653577.224168731365353 ], [ -5640756.028518863022327, -2653480.150987044442445 ], [ -5640732.183574191294611, -2653384.956631806213409 ], [ -5640699.12277097068727, -2653292.557876695413142 ], [ -5640657.164502807892859, -2653203.844572234898806 ], [ -5640606.712850761599839, -2653119.67107604118064 ], [ -5640548.253691822290421, -2653040.848024897277355 ], [ -5640482.350019645877182, -2652968.134527874179184 ], [ -5640409.636522622779012, -2652902.230855697765946 ], [ -5640330.813471479341388, -2652843.771696757990867 ], [ -5640246.639975285157561, -2652793.320044712163508 ], [ -5640157.926670824177563, -2652751.361776549369097 ], [ -5640065.527915713377297, -2652718.300973328296095 ], [ -5639970.333560475148261, -2652694.456028657499701 ], [ -5639873.260378789156675, -2652680.056582388468087 ], [ -5639775.243238459341228, -2652675.241309060715139 ], [ -5639677.226098129525781, -2652680.056582388468087 ], [ -5639580.152916443534195, -2652694.456028657499701 ], [ -5639484.958561205305159, -2652718.300973328296095 ], [ -5639392.559806094504893, -2652751.361776549369097 ], [ -5639303.846501633524895, -2652793.320044712163508 ], [ -5639219.673005439341068, -2652843.771696757990867 ], [ -5639140.849954295903444, -2652902.230855697765946 ], [ -5639068.136457272805274, -2652968.134527874179184 ], [ -5639002.232785096392035, -2653040.848024897277355 ], [ -5638943.773626157082617, -2653119.67107604118064 ], [ -5638893.321974110789597, -2653203.844572234898806 ], [ -5638851.363705947995186, -2653292.557876695413142 ], [ -5638818.302902727387846, -2653384.956631806213409 ], [ -5638794.457958055660129, -2653480.150987044442445 ], [ -5638780.058511787094176, -2653577.224168731365353 ], [ -5638775.243238459341228, -2653675.241309060715139 ] ] ] } },
{ "type": "Feature", "properties": { "name": "Jardim Progresso", "cep": "86300-792", "latitude": -23.1994617, "longitude": -50.6562147, "endereco": "Jardim Progresso, Cornélio Procópio, Paraná, Região Sul, 86300-792, Brasil", "raio_m": 1400, "area_km2": 6.1476350414707266, "peso": 3, "score": 18.442905124412178, "pop": 4545, "densidade": 739.30868851848413 }, "geometry": { "type": "Polygon", "coordinates": [ [ [ -5637624.025918738916516, -2656158.044791052583605 ], [ -5637630.767301397398114, -2656295.268787513952702 ], [ -5637650.926526173949242, -2656431.171241875272244 ], [ -5637684.309448713436723, -2656564.443339208606631 ], [ -5637730.594573223032057, -2656693.801596363540739 ], [ -5637789.336148651316762, -2656818.000222608912736 ], [ -5637859.968461515381932, -2656935.843117279931903 ], [ -5637941.811284030787647, -2657046.195388881489635 ], [ -5638034.076425077393651, -2657147.994284713640809 ], [ -5638135.875320909544826, -2657240.259425760246813 ], [ -5638246.227592511102557, -2657322.102248276118189 ], [ -5638364.070487182587385, -2657392.734561140183359 ], [ -5638488.269113427959383, -2657451.476136568468064 ], [ -5638617.627370582893491, -2657497.761261077597737 ], [ -5638750.899467916227877, -2657531.144183617085218 ], [ -5638886.801922277547419, -2657551.303408393636346 ], [ -5639024.025918738916516, -2657558.044791052583605 ], [ -5639161.249915200285614, -2657551.303408393636346 ], [ -5639297.152369561605155, -2657531.144183617085218 ], [ -5639430.424466894939542, -2657497.761261077597737 ], [ -5639559.78272404987365, -2657451.476136568468064 ], [ -5639683.981350295245647, -2657392.734561140183359 ], [ -5639801.824244966730475, -2657322.102248276118189 ], [ -5639912.176516568288207, -2657240.259425760246813 ], [ -5640013.975412400439382, -2657147.994284713640809 ], [ -5640106.240553447045386, -2657046.195388881489635 ], [ -5640188.0833759624511, -2656935.843117279931903 ], [ -5640258.715688826516271, -2656818.000222608912736 ], [ -5640317.457264254800975, -2656693.801596363540739 ], [ -5640363.74238876439631, -2656564.443339208606631 ], [ -5640397.125311303883791, -2656431.171241875272244 ], [ -5640417.284536080434918, -2656295.268787513952702 ], [ -5640424.025918738916516, -2656158.044791052583605 ], [ -5640417.284536080434918, -2656020.820794591214508 ], [ -5640397.125311303883791, -2655884.918340229894966 ], [ -5640363.74238876439631, -2655751.64624289656058 ], [ -5640317.457264254800975, -2655622.287985741626471 ], [ -5640258.715688826516271, -2655498.089359496254474 ], [ -5640188.0833759624511, -2655380.246464825235307 ], [ -5640106.240553447045386, -2655269.894193223677576 ], [ -5640013.975412400439382, -2655168.095297391526401 ], [ -5639912.176516568288207, -2655075.830156344920397 ], [ -5639801.824244966730475, -2654993.987333829049021 ], [ -5639683.981350295245647, -2654923.355020964983851 ], [ -5639559.78272404987365, -2654864.613445536699146 ], [ -5639430.424466894939542, -2654818.328321027569473 ], [ -5639297.152369561605155, -2654784.945398488081992 ], [ -5639161.249915200285614, -2654764.786173711530864 ], [ -5639024.025918738916516, -2654758.044791052583605 ], [ -5638886.801922277547419, -2654764.786173711530864 ], [ -5638750.899467916227877, -2654784.945398488081992 ], [ -5638617.627370582893491, -2654818.328321027569473 ], [ -5638488.269113427959383, -2654864.613445536699146 ], [ -5638364.070487182587385, -2654923.355020964983851 ], [ -5638246.227592511102557, -2654993.987333829049021 ], [ -5638135.875320909544826, -2655075.830156344920397 ], [ -5638034.076425077393651, -2655168.095297391526401 ], [ -5637941.811284030787647, -2655269.894193223677576 ], [ -5637859.968461515381932, -2655380.246464825235307 ], [ -5637789.336148651316762, -2655498.089359496254474 ], [ -5637730.594573223032057, -2655622.287985741626471 ], [ -5637684.309448713436723, -2655751.64624289656058 ], [ -5637650.926526173949242, -2655884.918340229894966 ], [ -5637630.767301397398114, -2656020.820794591214508 ], [ -5637624.025918738916516, -2656158.044791052583605 ] ] ] } },
{ "type": "Feature", "properties": { "name": "Jardim Primavera", "cep": "86300-792", "latitude": -23.1841959, "longitude": -50.6671149, "endereco": "Jardim Primavera, Cornélio Procópio, Paraná, Região Sul, 86300-792, Brasil, Região Geográfica Intermediária de Londrina", "raio_m": 1400, "area_km2": 6.1476350414707266, "peso": 3, "score": 18.442905124412178, "pop": 4545, "densidade": 739.30868851848413 }, "geometry": { "type": "Polygon", "coordinates": [ [ [ -5638837.430632284842432, -2654309.266742257401347 ], [ -5638844.172014943324029, -2654446.490738718770444 ], [ -5638864.331239719875157, -2654582.393193080089986 ], [ -5638897.714162259362638, -2654715.665290413424373 ], [ -5638943.999286768957973, -2654845.023547568358481 ], [ -5639002.740862197242677, -2654969.222173813730478 ], [ -5639073.373175061307847, -2655087.065068484749645 ], [ -5639155.215997576713562, -2655197.417340086307377 ], [ -5639247.481138623319566, -2655299.216235918458551 ], [ -5639349.280034455470741, -2655391.481376965064555 ], [ -5639459.632306057028472, -2655473.324199480935931 ], [ -5639577.4752007285133, -2655543.956512345001101 ], [ -5639701.673826973885298, -2655602.698087773285806 ], [ -5639831.032084128819406, -2655648.983212282415479 ], [ -5639964.304181462153792, -2655682.366134821902961 ], [ -5640100.206635823473334, -2655702.525359598454088 ], [ -5640237.430632284842432, -2655709.266742257401347 ], [ -5640374.654628746211529, -2655702.525359598454088 ], [ -5640510.557083107531071, -2655682.366134821902961 ], [ -5640643.829180440865457, -2655648.983212282415479 ], [ -5640773.187437595799565, -2655602.698087773285806 ], [ -5640897.386063841171563, -2655543.956512345001101 ], [ -5641015.228958512656391, -2655473.324199480935931 ], [ -5641125.581230114214122, -2655391.481376965064555 ], [ -5641227.380125946365297, -2655299.216235918458551 ], [ -5641319.645266992971301, -2655197.417340086307377 ], [ -5641401.488089508377016, -2655087.065068484749645 ], [ -5641472.120402372442186, -2654969.222173813730478 ], [ -5641530.861977800726891, -2654845.023547568358481 ], [ -5641577.147102310322225, -2654715.665290413424373 ], [ -5641610.530024849809706, -2654582.393193080089986 ], [ -5641630.689249626360834, -2654446.490738718770444 ], [ -5641637.430632284842432, -2654309.266742257401347 ], [ -5641630.689249626360834, -2654172.04274579603225 ], [ -5641610.530024849809706, -2654036.140291434712708 ], [ -5641577.147102310322225, -2653902.868194101378322 ], [ -5641530.861977800726891, -2653773.509936946444213 ], [ -5641472.120402372442186, -2653649.311310701072216 ], [ -5641401.488089508377016, -2653531.468416030053049 ], [ -5641319.645266992971301, -2653421.116144428495318 ], [ -5641227.380125946365297, -2653319.317248596344143 ], [ -5641125.581230114214122, -2653227.052107549738139 ], [ -5641015.228958512656391, -2653145.209285033866763 ], [ -5640897.386063841171563, -2653074.576972169801593 ], [ -5640773.187437595799565, -2653015.835396741516888 ], [ -5640643.829180440865457, -2652969.550272232387215 ], [ -5640510.557083107531071, -2652936.167349692899734 ], [ -5640374.654628746211529, -2652916.008124916348606 ], [ -5640237.430632284842432, -2652909.266742257401347 ], [ -5640100.206635823473334, -2652916.008124916348606 ], [ -5639964.304181462153792, -2652936.167349692899734 ], [ -5639831.032084128819406, -2652969.550272232387215 ], [ -5639701.673826973885298, -2653015.835396741516888 ], [ -5639577.4752007285133, -2653074.576972169801593 ], [ -5639459.632306057028472, -2653145.209285033866763 ], [ -5639349.280034455470741, -2653227.052107549738139 ], [ -5639247.481138623319566, -2653319.317248596344143 ], [ -5639155.215997576713562, -2653421.116144428495318 ], [ -5639073.373175061307847, -2653531.468416030053049 ], [ -5639002.740862197242677, -2653649.311310701072216 ], [ -5638943.999286768957973, -2653773.509936946444213 ], [ -5638897.714162259362638, -2653902.868194101378322 ], [ -5638864.331239719875157, -2654036.140291434712708 ], [ -5638844.172014943324029, -2654172.04274579603225 ], [ -5638837.430632284842432, -2654309.266742257401347 ] ] ] } },
{ "type": "Feature", "properties": { "name": "Jardim Vale Verde", "cep": "86300-792", "latitude": -23.1843399, "longitude": -50.6696073, "endereco": "Jardim Vale Verde, Cornélio Procópio, Paraná, Região Sul, 86300-792, Brasil, Região Geográfica Intermediária de Londrina", "raio_m": 1400, "area_km2": 6.1476350414707266, "peso": 3, "score": 18.442905124412178, "pop": 4545, "densidade": 739.30868851848413 }, "geometry": { "type": "Polygon", "coordinates": [ [ [ -5639114.88333113770932, -2654326.705002264585346 ], [ -5639121.624713796190917, -2654463.928998725954443 ], [ -5639141.783938572742045, -2654599.831453087273985 ], [ -5639175.166861112229526, -2654733.103550420608371 ], [ -5639221.451985621824861, -2654862.46180757554248 ], [ -5639280.193561050109565, -2654986.660433820914477 ], [ -5639350.825873914174736, -2655104.503328491933644 ], [ -5639432.66869642958045, -2655214.855600093491375 ], [ -5639524.933837476186454, -2655316.65449592564255 ], [ -5639626.732733308337629, -2655408.919636972248554 ], [ -5639737.08500490989536, -2655490.76245948811993 ], [ -5639854.927899581380188, -2655561.3947723521851 ], [ -5639979.126525826752186, -2655620.136347780469805 ], [ -5640108.484782981686294, -2655666.421472289599478 ], [ -5640241.75688031502068, -2655699.804394829086959 ], [ -5640377.659334676340222, -2655719.963619605638087 ], [ -5640514.88333113770932, -2655726.705002264585346 ], [ -5640652.107327599078417, -2655719.963619605638087 ], [ -5640788.009781960397959, -2655699.804394829086959 ], [ -5640921.281879293732345, -2655666.421472289599478 ], [ -5641050.640136448666453, -2655620.136347780469805 ], [ -5641174.838762694038451, -2655561.3947723521851 ], [ -5641292.681657365523279, -2655490.76245948811993 ], [ -5641403.03392896708101, -2655408.919636972248554 ], [ -5641504.832824799232185, -2655316.65449592564255 ], [ -5641597.097965845838189, -2655214.855600093491375 ], [ -5641678.940788361243904, -2655104.503328491933644 ], [ -5641749.573101225309074, -2654986.660433820914477 ], [ -5641808.314676653593779, -2654862.46180757554248 ], [ -5641854.599801163189113, -2654733.103550420608371 ], [ -5641887.982723702676594, -2654599.831453087273985 ], [ -5641908.141948479227722, -2654463.928998725954443 ], [ -5641914.88333113770932, -2654326.705002264585346 ], [ -5641908.141948479227722, -2654189.481005803216249 ], [ -5641887.982723702676594, -2654053.578551441896707 ], [ -5641854.599801163189113, -2653920.30645410856232 ], [ -5641808.314676653593779, -2653790.948196953628212 ], [ -5641749.573101225309074, -2653666.749570708256215 ], [ -5641678.940788361243904, -2653548.906676037237048 ], [ -5641597.097965845838189, -2653438.554404435679317 ], [ -5641504.832824799232185, -2653336.755508603528142 ], [ -5641403.03392896708101, -2653244.490367556922138 ], [ -5641292.681657365523279, -2653162.647545041050762 ], [ -5641174.838762694038451, -2653092.015232176985592 ], [ -5641050.640136448666453, -2653033.273656748700887 ], [ -5640921.281879293732345, -2652986.988532239571214 ], [ -5640788.009781960397959, -2652953.605609700083733 ], [ -5640652.107327599078417, -2652933.446384923532605 ], [ -5640514.88333113770932, -2652926.705002264585346 ], [ -5640377.659334676340222, -2652933.446384923532605 ], [ -5640241.75688031502068, -2652953.605609700083733 ], [ -5640108.484782981686294, -2652986.988532239571214 ], [ -5639979.126525826752186, -2653033.273656748700887 ], [ -5639854.927899581380188, -2653092.015232176985592 ], [ -5639737.08500490989536, -2653162.647545041050762 ], [ -5639626.732733308337629, -2653244.490367556922138 ], [ -5639524.933837476186454, -2653336.755508603528142 ], [ -5639432.66869642958045, -2653438.554404435679317 ], [ -5639350.825873914174736, -2653548.906676037237048 ], [ -5639280.193561050109565, -2653666.749570708256215 ], [ -5639221.451985621824861, -2653790.948196953628212 ], [ -5639175.166861112229526, -2653920.30645410856232 ], [ -5639141.783938572742045, -2654053.578551441896707 ], [ -5639121.624713796190917, -2654189.481005803216249 ], [ -5639114.88333113770932, -2654326.705002264585346 ] ] ] } },
{ "type": "Feature", "properties": { "name": "Jardim Pérola", "cep": "86302-106", "latitude": -23.1772198, "longitude": -50.6318566, "endereco": "Jardim Pérola, Cornélio Procópio, Paraná, Região Sul, 86302-106, Brasil, Região Geográfica Intermediária de Londrina", "raio_m": 1400, "area_km2": 6.1476350414707266, "peso": 3, "score": 18.442905124412178, "pop": 4545, "densidade": 739.30868851848413 }, "geometry": { "type": "Polygon", "coordinates": [ [ [ -5634912.494630047120154, -2653464.490291996859014 ], [ -5634919.236012705601752, -2653601.714288458228111 ], [ -5634939.395237482152879, -2653737.616742819547653 ], [ -5634972.77816002164036, -2653870.88884015288204 ], [ -5635019.063284531235695, -2654000.247097307816148 ], [ -5635077.8048599595204, -2654124.445723553188145 ], [ -5635148.43717282358557, -2654242.288618224207312 ], [ -5635230.279995338991284, -2654352.640889825765043 ], [ -5635322.545136385597289, -2654454.439785657916218 ], [ -5635424.344032217748463, -2654546.704926704522222 ], [ -5635534.696303819306195, -2654628.547749220393598 ], [ -5635652.539198490791023, -2654699.180062084458768 ], [ -5635776.73782473616302, -2654757.921637512743473 ], [ -5635906.096081891097128, -2654804.206762021873146 ], [ -5636039.368179224431515, -2654837.589684561360627 ], [ -5636175.270633585751057, -2654857.748909337911755 ], [ -5636312.494630047120154, -2654864.490291996859014 ], [ -5636449.718626508489251, -2654857.748909337911755 ], [ -5636585.621080869808793, -2654837.589684561360627 ], [ -5636718.893178203143179, -2654804.206762021873146 ], [ -5636848.251435358077288, -2654757.921637512743473 ], [ -5636972.450061603449285, -2654699.180062084458768 ], [ -5637090.292956274934113, -2654628.547749220393598 ], [ -5637200.645227876491845, -2654546.704926704522222 ], [ -5637302.444123708643019, -2654454.439785657916218 ], [ -5637394.709264755249023, -2654352.640889825765043 ], [ -5637476.552087270654738, -2654242.288618224207312 ], [ -5637547.184400134719908, -2654124.445723553188145 ], [ -5637605.925975563004613, -2654000.247097307816148 ], [ -5637652.211100072599947, -2653870.88884015288204 ], [ -5637685.594022612087429, -2653737.616742819547653 ], [ -5637705.753247388638556, -2653601.714288458228111 ], [ -5637712.494630047120154, -2653464.490291996859014 ], [ -5637705.753247388638556, -2653327.266295535489917 ], [ -5637685.594022612087429, -2653191.363841174170375 ], [ -5637652.211100072599947, -2653058.091743840835989 ], [ -5637605.925975563004613, -2652928.73348668590188 ], [ -5637547.184400134719908, -2652804.534860440529883 ], [ -5637476.552087270654738, -2652686.691965769510716 ], [ -5637394.709264755249023, -2652576.339694167952985 ], [ -5637302.444123708643019, -2652474.54079833580181 ], [ -5637200.645227876491845, -2652382.275657289195806 ], [ -5637090.292956274934113, -2652300.43283477332443 ], [ -5636972.450061603449285, -2652229.80052190925926 ], [ -5636848.251435358077288, -2652171.058946480974555 ], [ -5636718.893178203143179, -2652124.773821971844882 ], [ -5636585.621080869808793, -2652091.390899432357401 ], [ -5636449.718626508489251, -2652071.231674655806273 ], [ -5636312.494630047120154, -2652064.490291996859014 ], [ -5636175.270633585751057, -2652071.231674655806273 ], [ -5636039.368179224431515, -2652091.390899432357401 ], [ -5635906.096081891097128, -2652124.773821971844882 ], [ -5635776.73782473616302, -2652171.058946480974555 ], [ -5635652.539198490791023, -2652229.80052190925926 ], [ -5635534.696303819306195, -2652300.43283477332443 ], [ -5635424.344032217748463, -2652382.275657289195806 ], [ -5635322.545136385597289, -2652474.54079833580181 ], [ -5635230.279995338991284, -2652576.339694167952985 ], [ -5635148.43717282358557, -2652686.691965769510716 ], [ -5635077.8048599595204, -2652804.534860440529883 ], [ -5635019.063284531235695, -2652928.73348668590188 ], [ -5634972.77816002164036, -2653058.091743840835989 ], [ -5634939.395237482152879, -2653191.363841174170375 ], [ -5634919.236012705601752, -2653327.266295535489917 ], [ -5634912.494630047120154, -2653464.490291996859014 ] ] ] } },
{ "type": "Feature", "properties": { "name": "Conjunto Habitacional Vitor Dantas", "cep": "86302-106", "latitude": -23.1721427, "longitude": -50.6350835, "endereco": "Conjunto Habitacional Vitor Dantas, Cornélio Procópio, Paraná, Região Sul, 86302-106, Brasil, Região Geográfica Intermediária de Londrina", "raio_m": 900, "area_km2": 2.5406042773419384, "peso": 1, "score": 2.5406042773419384, "pop": 626, "densidade": 246.39807371140117 }, "geometry": { "type": "Polygon", "coordinates": [ [ [ -5635771.711494888179004, -2652849.702463684603572 ], [ -5635776.045240882784128, -2652937.917889981064945 ], [ -5635789.004742525517941, -2653025.283753498923033 ], [ -5635810.465192729607224, -2653110.958673213608563 ], [ -5635840.219915628433228, -2653194.117552813142538 ], [ -5635877.982356974855065, -2653273.959526828024536 ], [ -5635923.388843815773726, -2653349.715673402417451 ], [ -5635976.002086861990392, -2653420.656419431790709 ], [ -5636035.315391819924116, -2653486.098566752392799 ], [ -5636100.757539140991867, -2653545.411871711257845 ], [ -5636171.698285170830786, -2653598.025114757008851 ], [ -5636247.454431745223701, -2653643.431601597927511 ], [ -5636327.296405759640038, -2653681.19404294481501 ], [ -5636410.455285359174013, -2653710.948765843641013 ], [ -5636496.130205073393881, -2653732.409216047730297 ], [ -5636583.496068591251969, -2653745.368717689532787 ], [ -5636671.711494888179004, -2653749.702463684603572 ], [ -5636759.926921185106039, -2653745.368717689532787 ], [ -5636847.292784702964127, -2653732.409216047730297 ], [ -5636932.967704417183995, -2653710.948765843641013 ], [ -5637016.12658401671797, -2653681.19404294481501 ], [ -5637095.968558031134307, -2653643.431601597927511 ], [ -5637171.724704605527222, -2653598.025114757008851 ], [ -5637242.665450635366142, -2653545.411871711257845 ], [ -5637308.107597956433892, -2653486.098566752392799 ], [ -5637367.420902914367616, -2653420.656419431790709 ], [ -5637420.034145960584283, -2653349.715673402417451 ], [ -5637465.440632801502943, -2653273.959526828024536 ], [ -5637503.203074147924781, -2653194.117552813142538 ], [ -5637532.957797046750784, -2653110.958673213608563 ], [ -5637554.418247250840068, -2653025.283753498923033 ], [ -5637567.37774889357388, -2652937.917889981064945 ], [ -5637571.711494888179004, -2652849.702463684603572 ], [ -5637567.37774889357388, -2652761.487037388142198 ], [ -5637554.418247250840068, -2652674.12117387028411 ], [ -5637532.957797046750784, -2652588.446254155598581 ], [ -5637503.203074147924781, -2652505.287374556064606 ], [ -5637465.440632801502943, -2652425.445400541182607 ], [ -5637420.034145960584283, -2652349.689253966789693 ], [ -5637367.420902914367616, -2652278.748507937416434 ], [ -5637308.107597956433892, -2652213.306360616814345 ], [ -5637242.665450635366142, -2652153.993055657949299 ], [ -5637171.724704605527222, -2652101.379812612198293 ], [ -5637095.968558031134307, -2652055.973325771279633 ], [ -5637016.12658401671797, -2652018.210884424392134 ], [ -5636932.967704417183995, -2651988.456161525566131 ], [ -5636847.292784702964127, -2651966.995711321476847 ], [ -5636759.926921185106039, -2651954.036209679674357 ], [ -5636671.711494888179004, -2651949.702463684603572 ], [ -5636583.496068591251969, -2651954.036209679674357 ], [ -5636496.130205073393881, -2651966.995711321476847 ], [ -5636410.455285359174013, -2651988.456161525566131 ], [ -5636327.296405759640038, -2652018.210884424392134 ], [ -5636247.454431745223701, -2652055.973325771279633 ], [ -5636171.698285170830786, -2652101.379812612198293 ], [ -5636100.757539140991867, -2652153.993055657949299 ], [ -5636035.315391819924116, -2652213.306360616814345 ], [ -5635976.002086861990392, -2652278.748507937416434 ], [ -5635923.388843815773726, -2652349.689253966789693 ], [ -5635877.982356974855065, -2652425.445400541182607 ], [ -5635840.219915628433228, -2652505.287374556064606 ], [ -5635810.465192729607224, -2652588.446254155598581 ], [ -5635789.004742525517941, -2652674.12117387028411 ], [ -5635776.045240882784128, -2652761.487037388142198 ], [ -5635771.711494888179004, -2652849.702463684603572 ] ] ] } },
{ "type": "Feature", "properties": { "name": "Conjunto Habitacional Fortunato Sibim", "cep": "86300-009", "latitude": -23.1647134, "longitude": -50.6727033, "endereco": "Conjunto Habitacional Fortunato Sibim, Cornélio Procópio, Paraná, Região Sul, 86300-009, Brasil, Região Geográfica Intermediária de Londrina", "raio_m": 900, "area_km2": 2.5406042773419384, "peso": 1, "score": 2.5406042773419384, "pop": 626, "densidade": 246.39807371140117 }, "geometry": { "type": "Polygon", "coordinates": [ [ [ -5639959.528474633581936, -2651950.127930632792413 ], [ -5639963.86222062818706, -2652038.343356929253787 ], [ -5639976.821722270920873, -2652125.709220447111875 ], [ -5639998.282172475010157, -2652211.384140161797404 ], [ -5640028.03689537383616, -2652294.543019761331379 ], [ -5640065.799336720257998, -2652374.384993776213378 ], [ -5640111.205823561176658, -2652450.141140350606292 ], [ -5640163.819066607393324, -2652521.081886379979551 ], [ -5640223.132371565327048, -2652586.52403370058164 ], [ -5640288.574518886394799, -2652645.837338659446687 ], [ -5640359.515264916233718, -2652698.450581705197692 ], [ -5640435.271411490626633, -2652743.857068546116352 ], [ -5640515.11338550504297, -2652781.619509893003851 ], [ -5640598.272265104576945, -2652811.374232791829854 ], [ -5640683.947184818796813, -2652832.834682995919138 ], [ -5640771.313048336654902, -2652845.794184637721628 ], [ -5640859.528474633581936, -2652850.127930632792413 ], [ -5640947.743900930508971, -2652845.794184637721628 ], [ -5641035.109764448367059, -2652832.834682995919138 ], [ -5641120.784684162586927, -2652811.374232791829854 ], [ -5641203.943563762120903, -2652781.619509893003851 ], [ -5641283.78553777653724, -2652743.857068546116352 ], [ -5641359.541684350930154, -2652698.450581705197692 ], [ -5641430.482430380769074, -2652645.837338659446687 ], [ -5641495.924577701836824, -2652586.52403370058164 ], [ -5641555.237882659770548, -2652521.081886379979551 ], [ -5641607.851125705987215, -2652450.141140350606292 ], [ -5641653.257612546905875, -2652374.384993776213378 ], [ -5641691.020053893327713, -2652294.543019761331379 ], [ -5641720.774776792153716, -2652211.384140161797404 ], [ -5641742.235226996243, -2652125.709220447111875 ], [ -5641755.194728638976812, -2652038.343356929253787 ], [ -5641759.528474633581936, -2651950.127930632792413 ], [ -5641755.194728638976812, -2651861.91250433633104 ], [ -5641742.235226996243, -2651774.546640818472952 ], [ -5641720.774776792153716, -2651688.871721103787422 ], [ -5641691.020053893327713, -2651605.712841504253447 ], [ -5641653.257612546905875, -2651525.870867489371449 ], [ -5641607.851125705987215, -2651450.114720914978534 ], [ -5641555.237882659770548, -2651379.173974885605276 ], [ -5641495.924577701836824, -2651313.731827565003186 ], [ -5641430.482430380769074, -2651254.41852260613814 ], [ -5641359.541684350930154, -2651201.805279560387135 ], [ -5641283.78553777653724, -2651156.398792719468474 ], [ -5641203.943563762120903, -2651118.636351372580975 ], [ -5641120.784684162586927, -2651088.881628473754972 ], [ -5641035.109764448367059, -2651067.421178269665688 ], [ -5640947.743900930508971, -2651054.461676627863199 ], [ -5640859.528474633581936, -2651050.127930632792413 ], [ -5640771.313048336654902, -2651054.461676627863199 ], [ -5640683.947184818796813, -2651067.421178269665688 ], [ -5640598.272265104576945, -2651088.881628473754972 ], [ -5640515.11338550504297, -2651118.636351372580975 ], [ -5640435.271411490626633, -2651156.398792719468474 ], [ -5640359.515264916233718, -2651201.805279560387135 ], [ -5640288.574518886394799, -2651254.41852260613814 ], [ -5640223.132371565327048, -2651313.731827565003186 ], [ -5640163.819066607393324, -2651379.173974885605276 ], [ -5640111.205823561176658, -2651450.114720914978534 ], [ -5640065.799336720257998, -2651525.870867489371449 ], [ -5640028.03689537383616, -2651605.712841504253447 ], [ -5639998.282172475010157, -2651688.871721103787422 ], [ -5639976.821722270920873, -2651774.546640818472952 ], [ -5639963.86222062818706, -2651861.91250433633104 ], [ -5639959.528474633581936, -2651950.127930632792413 ] ] ] } },
{ "type": "Feature", "properties": { "name": "Conjunto Habitacional União", "cep": "86300-009", "latitude": -23.1700595, "longitude": -50.6650644, "endereco": "Conjunto Habitacional União, Cornélio Procópio, Paraná, Região Sul, 86300-009, Brasil, Região Geográfica Intermediária de Londrina", "raio_m": 900, "area_km2": 2.5406042773419384, "peso": 1, "score": 2.5406042773419384, "pop": 626, "densidade": 246.39807371140117 }, "geometry": { "type": "Polygon", "coordinates": [ [ [ -5639109.170016412623227, -2652597.453788407612592 ], [ -5639113.503762407228351, -2652685.669214704073966 ], [ -5639126.463264049962163, -2652773.035078221932054 ], [ -5639147.923714254051447, -2652858.709997936617583 ], [ -5639177.67843715287745, -2652941.868877536151558 ], [ -5639215.440878499299288, -2653021.710851551033556 ], [ -5639260.847365340217948, -2653097.466998125426471 ], [ -5639313.460608386434615, -2653168.40774415479973 ], [ -5639372.773913344368339, -2653233.849891475401819 ], [ -5639438.216060665436089, -2653293.163196434266865 ], [ -5639509.156806695275009, -2653345.776439480017871 ], [ -5639584.912953269667923, -2653391.182926320936531 ], [ -5639664.75492728408426, -2653428.94536766782403 ], [ -5639747.913806883618236, -2653458.700090566650033 ], [ -5639833.588726597838104, -2653480.160540770739317 ], [ -5639920.954590115696192, -2653493.120042412541807 ], [ -5640009.170016412623227, -2653497.453788407612592 ], [ -5640097.385442709550261, -2653493.120042412541807 ], [ -5640184.75130622740835, -2653480.160540770739317 ], [ -5640270.426225941628218, -2653458.700090566650033 ], [ -5640353.585105541162193, -2653428.94536766782403 ], [ -5640433.42707955557853, -2653391.182926320936531 ], [ -5640509.183226129971445, -2653345.776439480017871 ], [ -5640580.123972159810364, -2653293.163196434266865 ], [ -5640645.566119480878115, -2653233.849891475401819 ], [ -5640704.879424438811839, -2653168.40774415479973 ], [ -5640757.492667485028505, -2653097.466998125426471 ], [ -5640802.899154325947165, -2653021.710851551033556 ], [ -5640840.661595672369003, -2652941.868877536151558 ], [ -5640870.416318571195006, -2652858.709997936617583 ], [ -5640891.87676877528429, -2652773.035078221932054 ], [ -5640904.836270418018103, -2652685.669214704073966 ], [ -5640909.170016412623227, -2652597.453788407612592 ], [ -5640904.836270418018103, -2652509.238362111151218 ], [ -5640891.87676877528429, -2652421.87249859329313 ], [ -5640870.416318571195006, -2652336.197578878607601 ], [ -5640840.661595672369003, -2652253.038699279073626 ], [ -5640802.899154325947165, -2652173.196725264191628 ], [ -5640757.492667485028505, -2652097.440578689798713 ], [ -5640704.879424438811839, -2652026.499832660425454 ], [ -5640645.566119480878115, -2651961.057685339823365 ], [ -5640580.123972159810364, -2651901.744380380958319 ], [ -5640509.183226129971445, -2651849.131137335207313 ], [ -5640433.42707955557853, -2651803.724650494288653 ], [ -5640353.585105541162193, -2651765.962209147401154 ], [ -5640270.426225941628218, -2651736.207486248575151 ], [ -5640184.75130622740835, -2651714.747036044485867 ], [ -5640097.385442709550261, -2651701.787534402683377 ], [ -5640009.170016412623227, -2651697.453788407612592 ], [ -5639920.954590115696192, -2651701.787534402683377 ], [ -5639833.588726597838104, -2651714.747036044485867 ], [ -5639747.913806883618236, -2651736.207486248575151 ], [ -5639664.75492728408426, -2651765.962209147401154 ], [ -5639584.912953269667923, -2651803.724650494288653 ], [ -5639509.156806695275009, -2651849.131137335207313 ], [ -5639438.216060665436089, -2651901.744380380958319 ], [ -5639372.773913344368339, -2651961.057685339823365 ], [ -5639313.460608386434615, -2652026.499832660425454 ], [ -5639260.847365340217948, -2652097.440578689798713 ], [ -5639215.440878499299288, -2652173.196725264191628 ], [ -5639177.67843715287745, -2652253.038699279073626 ], [ -5639147.923714254051447, -2652336.197578878607601 ], [ -5639126.463264049962163, -2652421.87249859329313 ], [ -5639113.503762407228351, -2652509.238362111151218 ], [ -5639109.170016412623227, -2652597.453788407612592 ] ] ] } },
{ "type": "Feature", "properties": { "name": "Vila América", "cep": "86300-009", "latitude": -23.1895236, "longitude": -50.65013, "endereco": "Vila América, Cornélio Procópio, Paraná, Região Sul, 86300-009, Brasil, Região Geográfica Intermediária de Londrina", "raio_m": 1000, "area_km2": 3.1365484905462346, "peso": 2, "score": 6.2730969810924693, "pop": 1546, "densidade": 492.89848528079403 }, "geometry": { "type": "Polygon", "coordinates": [ [ [ -5637346.680213108658791, -2654954.458533489611 ], [ -5637351.495486436411738, -2655052.475673818960786 ], [ -5637365.894932704977691, -2655149.548855505883694 ], [ -5637389.739877376705408, -2655244.74321074411273 ], [ -5637422.800680597312748, -2655337.141965854912996 ], [ -5637464.75894876010716, -2655425.855270315427333 ], [ -5637515.21060080640018, -2655510.028766509145498 ], [ -5637573.669759745709598, -2655588.851817653048784 ], [ -5637639.573431922122836, -2655661.565314676146954 ], [ -5637712.286928945221007, -2655727.468986852560192 ], [ -5637791.109980088658631, -2655785.928145792335272 ], [ -5637875.283476282842457, -2655836.379797838162631 ], [ -5637963.996780743822455, -2655878.338066000957042 ], [ -5638056.395535854622722, -2655911.398869222030044 ], [ -5638151.589891092851758, -2655935.243813892826438 ], [ -5638248.663072778843343, -2655949.643260161858052 ], [ -5638346.680213108658791, -2655954.458533489611 ], [ -5638444.697353438474238, -2655949.643260161858052 ], [ -5638541.770535124465823, -2655935.243813892826438 ], [ -5638636.96489036269486, -2655911.398869222030044 ], [ -5638729.363645473495126, -2655878.338066000957042 ], [ -5638818.076949934475124, -2655836.379797838162631 ], [ -5638902.25044612865895, -2655785.928145792335272 ], [ -5638981.073497272096574, -2655727.468986852560192 ], [ -5639053.786994295194745, -2655661.565314676146954 ], [ -5639119.690666471607983, -2655588.851817653048784 ], [ -5639178.149825410917401, -2655510.028766509145498 ], [ -5639228.601477457210422, -2655425.855270315427333 ], [ -5639270.559745620004833, -2655337.141965854912996 ], [ -5639303.620548840612173, -2655244.74321074411273 ], [ -5639327.46549351233989, -2655149.548855505883694 ], [ -5639341.864939780905843, -2655052.475673818960786 ], [ -5639346.680213108658791, -2654954.458533489611 ], [ -5639341.864939780905843, -2654856.441393160261214 ], [ -5639327.46549351233989, -2654759.368211473338306 ], [ -5639303.620548840612173, -2654664.17385623510927 ], [ -5639270.559745620004833, -2654571.775101124309003 ], [ -5639228.601477457210422, -2654483.061796663794667 ], [ -5639178.149825410917401, -2654398.888300470076501 ], [ -5639119.690666471607983, -2654320.065249326173216 ], [ -5639053.786994295194745, -2654247.351752303075045 ], [ -5638981.073497272096574, -2654181.448080126661807 ], [ -5638902.25044612865895, -2654122.988921186886728 ], [ -5638818.076949934475124, -2654072.537269141059369 ], [ -5638729.363645473495126, -2654030.579000978264958 ], [ -5638636.96489036269486, -2653997.518197757191956 ], [ -5638541.770535124465823, -2653973.673253086395562 ], [ -5638444.697353438474238, -2653959.273806817363948 ], [ -5638346.680213108658791, -2653954.458533489611 ], [ -5638248.663072778843343, -2653959.273806817363948 ], [ -5638151.589891092851758, -2653973.673253086395562 ], [ -5638056.395535854622722, -2653997.518197757191956 ], [ -5637963.996780743822455, -2654030.579000978264958 ], [ -5637875.283476282842457, -2654072.537269141059369 ], [ -5637791.109980088658631, -2654122.988921186886728 ], [ -5637712.286928945221007, -2654181.448080126661807 ], [ -5637639.573431922122836, -2654247.351752303075045 ], [ -5637573.669759745709598, -2654320.065249326173216 ], [ -5637515.21060080640018, -2654398.888300470076501 ], [ -5637464.75894876010716, -2654483.061796663794667 ], [ -5637422.800680597312748, -2654571.775101124309003 ], [ -5637389.739877376705408, -2654664.17385623510927 ], [ -5637365.894932704977691, -2654759.368211473338306 ], [ -5637351.495486436411738, -2654856.441393160261214 ], [ -5637346.680213108658791, -2654954.458533489611 ] ] ] } },
{ "type": "Feature", "properties": { "name": "Jardim Morumbi", "cep": "86302-106", "latitude": -23.179339, "longitude": -50.6278278, "endereco": "Jardim Morumbi, Cornélio Procópio, Paraná, Região Sul, 86302-106, Brasil, Região Geográfica Intermediária de Londrina", "raio_m": 1400, "area_km2": 6.1476350414707266, "peso": 3, "score": 18.442905124412178, "pop": 4545, "densidade": 739.30868851848413 }, "geometry": { "type": "Polygon", "coordinates": [ [ [ -5634464.010665539652109, -2653721.111866052728146 ], [ -5634470.752048198133707, -2653858.335862514097244 ], [ -5634490.911272974684834, -2653994.238316875416785 ], [ -5634524.294195514172316, -2654127.510414208751172 ], [ -5634570.57932002376765, -2654256.86867136368528 ], [ -5634629.320895452052355, -2654381.067297609057277 ], [ -5634699.953208316117525, -2654498.910192280076444 ], [ -5634781.79603083152324, -2654609.262463881634176 ], [ -5634874.061171878129244, -2654711.06135971378535 ], [ -5634975.860067710280418, -2654803.326500760391355 ], [ -5635086.21233931183815, -2654885.16932327626273 ], [ -5635204.055233983322978, -2654955.801636140327901 ], [ -5635328.253860228694975, -2655014.543211568612605 ], [ -5635457.612117383629084, -2655060.828336077742279 ], [ -5635590.88421471696347, -2655094.21125861722976 ], [ -5635726.786669078283012, -2655114.370483393780887 ], [ -5635864.010665539652109, -2655121.111866052728146 ], [ -5636001.234662001021206, -2655114.370483393780887 ], [ -5636137.137116362340748, -2655094.21125861722976 ], [ -5636270.409213695675135, -2655060.828336077742279 ], [ -5636399.767470850609243, -2655014.543211568612605 ], [ -5636523.96609709598124, -2654955.801636140327901 ], [ -5636641.808991767466068, -2654885.16932327626273 ], [ -5636752.1612633690238, -2654803.326500760391355 ], [ -5636853.960159201174974, -2654711.06135971378535 ], [ -5636946.225300247780979, -2654609.262463881634176 ], [ -5637028.068122763186693, -2654498.910192280076444 ], [ -5637098.700435627251863, -2654381.067297609057277 ], [ -5637157.442011055536568, -2654256.86867136368528 ], [ -5637203.727135565131903, -2654127.510414208751172 ], [ -5637237.110058104619384, -2653994.238316875416785 ], [ -5637257.269282881170511, -2653858.335862514097244 ], [ -5637264.010665539652109, -2653721.111866052728146 ], [ -5637257.269282881170511, -2653583.887869591359049 ], [ -5637237.110058104619384, -2653447.985415230039507 ], [ -5637203.727135565131903, -2653314.713317896705121 ], [ -5637157.442011055536568, -2653185.355060741771013 ], [ -5637098.700435627251863, -2653061.156434496399015 ], [ -5637028.068122763186693, -2652943.313539825379848 ], [ -5636946.225300247780979, -2652832.961268223822117 ], [ -5636853.960159201174974, -2652731.162372391670942 ], [ -5636752.1612633690238, -2652638.897231345064938 ], [ -5636641.808991767466068, -2652557.054408829193562 ], [ -5636523.96609709598124, -2652486.422095965128392 ], [ -5636399.767470850609243, -2652427.680520536843687 ], [ -5636270.409213695675135, -2652381.395396027714014 ], [ -5636137.137116362340748, -2652348.012473488226533 ], [ -5636001.234662001021206, -2652327.853248711675406 ], [ -5635864.010665539652109, -2652321.111866052728146 ], [ -5635726.786669078283012, -2652327.853248711675406 ], [ -5635590.88421471696347, -2652348.012473488226533 ], [ -5635457.612117383629084, -2652381.395396027714014 ], [ -5635328.253860228694975, -2652427.680520536843687 ], [ -5635204.055233983322978, -2652486.422095965128392 ], [ -5635086.21233931183815, -2652557.054408829193562 ], [ -5634975.860067710280418, -2652638.897231345064938 ], [ -5634874.061171878129244, -2652731.162372391670942 ], [ -5634781.79603083152324, -2652832.961268223822117 ], [ -5634699.953208316117525, -2652943.313539825379848 ], [ -5634629.320895452052355, -2653061.156434496399015 ], [ -5634570.57932002376765, -2653185.355060741771013 ], [ -5634524.294195514172316, -2653314.713317896705121 ], [ -5634490.911272974684834, -2653447.985415230039507 ], [ -5634470.752048198133707, -2653583.887869591359049 ], [ -5634464.010665539652109, -2653721.111866052728146 ] ] ] } }
]
}
